{
    "links": {
        "self": "http://www.neowsapp.com/rest/v1/neo/3557484?api_key=iIulBulltgU6a56xZRHN4H3l9WmuAYTsLGpBGhQ2"
    },
    "id": "3557484",
    "neo_reference_id": "3557484",
    "name": "(2011 CW46)",
    "designation": "2011 CW46",
    "nasa_jpl_url": "http://ssd.jpl.nasa.gov/sbdb.cgi?sstr=3557484",
    "absolute_magnitude_h": 24.8,
    "estimated_diameter": {
        "kilometers": {
            "estimated_diameter_min": 0.0291443905,
            "estimated_diameter_max": 0.0651688382
        },
        "meters": {
            "estimated_diameter_min": 29.1443904535,
            "estimated_diameter_max": 65.1688382168
        },
        "miles": {
            "estimated_diameter_min": 0.018109479,
            "estimated_diameter_max": 0.0404940262
        },
        "feet": {
            "estimated_diameter_min": 95.6180819754,
            "estimated_diameter_max": 213.8085311752
        }
    },
    "is_potentially_hazardous_asteroid": false,
    "close_approach_data": [
        {
            "close_approach_date": "2009-08-11",
            "close_approach_date_full": "2009-Aug-11 03:58",
            "epoch_date_close_approach": 1249963080000,
            "relative_velocity": {
                "kilometers_per_second": "16.9435903337",
                "kilometers_per_hour": "60996.925201315",
                "miles_per_hour": "37901.1172174504"
            },
            "miss_distance": {
                "astronomical": "0.0770768503",
                "lunar": "29.9828947667",
                "kilometers": "11530532.631188861",
                "miles": "7164740.7435778418"
            },
            "orbiting_body": "Earth"
        },
        {
            "close_approach_date": "2010-02-13",
            "close_approach_date_full": "2010-Feb-13 18:51",
            "epoch_date_close_approach": 1266087060000,
            "relative_velocity": {
                "kilometers_per_second": "16.5443833434",
                "kilometers_per_hour": "59559.7800361187",
                "miles_per_hour": "37008.1311007761"
            },
            "miss_distance": {
                "astronomical": "0.42337631",
                "lunar": "164.69338459",
                "kilometers": "63336194.1844597",
                "miles": "39355286.13735586"
            },
            "orbiting_body": "Earth"
        },
        {
            "close_approach_date": "2010-08-30",
            "close_approach_date_full": "2010-Aug-30 06:44",
            "epoch_date_close_approach": 1283150640000,
            "relative_velocity": {
                "kilometers_per_second": "17.0657243326",
                "kilometers_per_hour": "61436.6075973719",
                "miles_per_hour": "38174.3187596003"
            },
            "miss_distance": {
                "astronomical": "0.3777443285",
                "lunar": "146.9425437865",
                "kilometers": "56509746.948180295",
                "miles": "35113528.517646271"
            },
            "orbiting_body": "Earth"
        },
        {
            "close_approach_date": "2011-02-09",
            "close_approach_date_full": "2011-Feb-09 12:56",
            "epoch_date_close_approach": 1297256160000,
            "relative_velocity": {
                "kilometers_per_second": "16.0679340266",
                "kilometers_per_hour": "57844.5624958262",
                "miles_per_hour": "35942.3616241427"
            },
            "miss_distance": {
                "astronomical": "0.0701096545",
                "lunar": "27.2726556005",
                "kilometers": "10488254.979635915",
                "miles": "6517099.442429027"
            },
            "orbiting_body": "Earth"
        },
        {
            "close_approach_date": "2012-02-19",
            "close_approach_date_full": "2012-Feb-19 01:25",
            "epoch_date_close_approach": 1329614700000,
            "relative_velocity": {
                "kilometers_per_second": "23.4074966213",
                "kilometers_per_hour": "84266.9878365338",
                "miles_per_hour": "52360.2291920952"
            },
            "miss_distance": {
                "astronomical": "0.451305423",
                "lunar": "175.557809547",
                "kilometers": "67514330.00024901",
                "miles": "41951459.347135938"
            },
            "orbiting_body": "Earth"
        }
    ],
    "orbital_data": {
        "orbit_id": "5",
        "orbit_determination_date": "2017-04-06 08:54:30",
        "first_observation_date": "2011-02-11",
        "last_observation_date": "2011-02-12",
        "data_arc_in_days": 1,
        "observations_used": 11,
        "orbit_uncertainty": "9",
        "minimum_orbit_intersection": ".0223873",
        "jupiter_tisserand_invariant": "5.725",
        "epoch_osculation": "2455604.5",
        "eccentricity": ".1563182702529613",
        "semi_major_axis": "1.04915276379816",
        "inclination": "30.36198440140776",
        "ascending_node_longitude": "322.1708060583099",
        "orbital_period": "392.5152371742926",
        "perihelion_distance": ".8851510185301182",
        "perihelion_argument": "77.23087820077448",
        "aphelion_distance": "1.213154509066202",
        "perihelion_time": "2455512.266066899060",
        "mean_anomaly": "84.59344446186273",
        "mean_motion": ".9171618472486087",
        "equinox": "J2000",
        "orbit_class": {
            "orbit_class_type": "APO",
            "orbit_class_description": "Near-Earth asteroid orbits which cross the Earth’s orbit similar to that of 1862 Apollo",
            "orbit_class_range": "a (semi-major axis) > 1.0 AU; q (perihelion) < 1.017 AU"
        }
    },
    "is_sentry_object": false
}